#dP2024  3  5  0  0  0.00000000      97 __u+U IGS20 FIT  IAC
## 2304 172800.00000000   900.00000000 60374 0.0000000000000
+  118   C06C07C08C09C10C11C12C13C14C16C19C20C21C22C23C24C25
+        C26C27C28C29C30C32C33C34C35C36C37C38C39C40C41C42C43
+        C44C45C46E02E03E04E05E07E08E09E10E11E12E13E14E15E18
+        E19E21E24E25E26E27E30E31E33E34E36G01G02G03G04G05G06
+        G07G08G09G10G11G12G13G14G15G16G17G18G19G20G21G22G23
+        G24G25G26G27G28G29G30G31G32J02J03J04R01R02R03R04R05
+        R07R08R09R11R12R13R14R15R16R17R18R19R20R21R22R24  0
++         7  7  7  7  7  7  7  7  7  7  5  6  6  5  6  6  5
++         6  5  5  5  5  6  5  6  7  5  6  6  6  6  6  6  6
++         6  5  5  4  4  4  4  4  4  4  4  5  4  4  4  4  4
++         4  4  4  4  4  4  4  4  4  4  4  4  4  3  3  3  3
++         3  4  3  3  3  3  3  3  3  3  3  4  3  3  4  3  3
++         3  3  3  3  3  3  3  3  3 11 11 11  8  7  7  6  6
++         6  6  6  7  7  8  6  6  6  6  6  7  8  7  7  6  0
%c M  cc GPS ccc cccc cccc cccc cccc ccccc ccccc ccccc ccccc
%c cc cc ccc ccc cccc cccc cccc cccc ccccc ccccc ccccc ccccc
%f  1.2500000  1.025000000  0.00000000000  0.000000000000000
%f  0.0000000  0.000000000  0.00000000000  0.000000000000000
%i    0    0    0    0      0      0      0      0         0
%i    0    0    0    0      0      0      0      0         0
/* INFORMATION & ANALYSIS CENTER (IAC)            FINAL DATA
/* S/V CLOCKS ARE ALIGNED TO GNSS TIME                      
/* G:C1WC2W R:C1PC2P E:C1XC5X C:C2IC6I J:C1CC2S             
/* PCV:IGS20_2290 OL/AL:FES2004  NONE     YN ORB:CoN CLK:CoN
*  2024 03 05 15 45  0.00000000
PC06 -17820.626581  35897.130107 -13534.538332    252.685584
PC07  -3773.823412  35116.477264 -22797.759573   -907.251648
PC08 -10111.736903  18775.006123  36347.472897    -12.904911
PC09 -12916.431581  34795.103087 -20127.665920   -579.406601
PC10   3188.281188  37810.907675 -17469.925557     57.906985
PC11 -17754.379111   8520.296350 -19703.850475    444.353752
PC12 -11174.871395 -12217.634925 -22424.627180   -206.721299
PC13   -523.636862  21844.949220  36230.081482    422.649731
PC14 -19320.071877  -2031.257254  20075.251175    337.277859
PC16 -20728.060843  35422.369676 -10127.424488   -378.416588
PC19  13934.866644  -7464.147915 -22964.937771   -921.417055
PC20  21235.134270   9652.369467 -15277.464516   -226.915548
PC21 -16286.893539 -22545.583037  -2437.597676   -961.429964
PC22  -1790.469557 -21337.043982 -17908.222371    -85.839425
PC23  -9663.864970  16494.590206 -20331.826970   -777.565406
PC24 -25955.785001  -2865.475730   9786.341488    944.282574
PC25 -24660.055695  10437.550391  -7832.133468    342.104617
PC26 -12375.702680 -13204.107984  21212.477703   -258.486450
PC27   6002.576049  20118.619924  18370.340011    280.424291
PC28  -6401.960359  26663.249144   5197.510189    213.688736
PC29  16382.749784 -17828.864713  13862.613831    250.536729
PC30  15968.705466   2649.829171  22720.683589    -33.827747
PC32  16369.248393  22444.228929   2582.168485   -577.933422
PC33 -14017.627918   7454.729171  22960.000293   -954.582488
PC34 -16498.426328   -848.416251 -22506.877041    383.552622
PC35   5461.690330 -26874.446225  -5059.113772    418.311445
PC36  25115.160676  -9638.576555   7457.931068      7.956519
PC37  11708.341528  13639.048982 -21348.788346   -941.617982
PC38 -18718.810081  18945.291582  32702.681186    140.864970
PC39 -22705.228718  35475.806848  -3705.965012     -7.431117
PC40  -7520.002812  31533.672085 -26814.948055    -59.410126
PC41   1032.197933  20941.919604  18466.036355   -900.589195
PC42 -21474.876609 -11042.641696  14063.079140   -449.094699
PC43 -16720.460739  17000.716329 -14529.568393     62.965398
PC44  -6816.647783 -19998.666528 -18227.496452    404.193171
PC45   9596.052799 -16371.485766  20458.866905    -73.976212
PC46  26316.918580   2298.039856  -9068.317046   -129.166780
PE02   5745.179051  19182.831446 -21816.803660    108.738846
PE03   2260.971788  29488.221219   1086.372684    -98.207408
PE04 -13727.517898 -20330.957542  16576.650492   -342.579080
PE05 -10334.110706  21266.837669  17814.503945   4726.223096
PE07  17003.456769    -97.352760 -24219.249729   -107.252770
PE08  13328.952988  20950.179991 -16100.600080   -234.143248
PE09 -16880.739884    -69.654928  24321.383432   -359.583566
PE10 -21149.445068  -1075.613421 -20686.487616   -606.974290
PE11 -25382.994130   7856.860373 -13074.852169   3199.275791
PE12 -14341.403169  -9005.447152 -24281.663779   -935.030929
PE13  25195.784429  -7360.350359  13671.893261    -20.416332
PE14 -17006.288317   9369.330466 -20788.881719     57.908864
PE15  13793.564453   9395.579154  24452.019412    -89.499972
PE18   8406.195750 -25725.682000  11413.593352    401.073677
PE19   -675.792570 -29419.313240  -3173.913122   -490.179211
PE21  14498.862395 -11090.778789  23293.559315   -582.376313
PE24 -27199.712997  -4107.386407 -10920.787865   -634.406305
PE25 -14862.530399  10845.888453 -23188.436218      1.728985
PE26  21315.721208 -19780.094210  -5500.480149    387.701410
PE27  27133.424376   3800.793534  11213.191936   -291.113436
PE30  23438.606870  16460.418414  -7525.656534    -63.878185
PE31 -23615.406746 -16265.724988   7326.329742    -17.531744
PE33   6058.081646 -20535.805522 -20432.465826      8.575239
PE34  -5473.074097  20398.058935  20738.130628    -98.279882
PE36 -21691.171643  19545.084740   4925.009388   -195.024813
PG01   4781.919847 -18488.676411 -18658.151703    172.447395
PG02  12371.727931 -20650.300169 -10433.391505   -475.155850
PG03    963.952241 -15388.771431 -21787.165673    233.837979
PG04   2481.484456 -25496.528760  -6721.459318    307.633736
PG05 -14787.178462   9103.773345  19950.248534   -164.264244
PG06 -20810.046108   1890.730668 -16393.404954    380.675938
PG07  -7117.471867 -14121.941848  21797.512311    -77.293987
PG08   7108.310483 -20862.977885  14402.892013     32.730606
PG09  -7881.655018 -24580.567026   6049.457149    114.218826
PG10  24380.868112  10961.130555    793.924440      0.718652
PG11 -23432.108438  10886.054061  -6024.851060   -597.183359
PG12  -3012.654820  15425.789189 -21705.645685   -484.300835
PG13 -13128.078762  12945.694957  18830.338586    631.453969
PG14 -22615.224969 -13542.613568   4044.759913    342.741308
PG15  -4598.128881  21760.371101  13874.926651    134.490097
PG16  19931.376464  -2956.073476  17200.133837   -348.083457
PG17 -12404.516237 -16000.488052 -16687.750273    714.776850
PG18   7400.386374  13017.276754  21941.602369   -569.412849
PG19 -14730.966698  -6678.537458 -21318.844839    449.755593
PG20 -23763.816496   2831.602871  11411.681206    385.056608
PG21  15860.144607 -19696.556566  -5715.517022    132.519216
PG22 -24057.572987 -10132.467798  -3528.921097     20.728554
PG23  17759.423079  15754.453596  12128.178448    170.359795
PG24 -12833.824321  21165.201924  -9460.754418   -441.897359
PG25   8995.247473  17653.670961 -18153.423180    490.479326
PG26  25479.714566   2677.357545   7535.759862    183.032339
PG27  13275.202138  -9347.177816  20652.675409     -9.455314
PG28  19565.046576    345.305136 -17974.983412   -153.611858
PG29   4292.038516  25737.772298   4603.055261   -605.555487
PG30 -16671.326045  -5944.999575  20007.812623   -423.887755
PG31  23437.997507  -7475.069471 -10725.489859   -227.932314
PG32  14513.896699  12479.159523 -18295.364061   -614.681549
PJ02 -26425.836460  15785.391818 -24199.048054     -2.603918
PJ03 -27871.378566  31513.838738   1602.981499     -0.217069
PJ04 -24775.069382  27429.184217  26173.493715     50.761264
PR01 -15552.785755 -18313.609836   8595.768014     78.884022
PR02 -13508.811499  -4126.796061  21274.364127    -22.549654
PR03  -4444.346407  12932.882015  21598.534691     95.791985
PR04   6737.720617  22404.559196  10216.069644    226.252045
PR05  14292.073327  20049.331474  -6695.032410    127.938139
PR07   3880.062262 -13572.596617 -21186.872727     77.271520
PR08  -7077.089848 -22403.370597  -9827.394773    -74.655945
PR09  25379.048627  -1203.772531   1728.368725    173.637411
PR11    451.397790 -10942.257037  23042.563726     32.241742
PR12 -19056.868138  -7521.851632  15203.715196     37.457074
PR13 -25492.625169   -354.702767    713.751998    -45.006212
PR14 -17012.060162   8250.571975 -17126.564026     26.173928
PR15   1145.876627  11061.313773 -22943.501676     81.615893
PR16  18879.390453   7412.850828 -15444.511779     23.774969
PR17 -14596.989331  20540.509675  -3845.808116     66.474239
PR18  -6722.276629  21284.604586  12416.121613    130.619111
PR19   3267.317431  12664.585021  21900.616105   -268.253565
PR20  15012.081212  -6816.823923  19453.341781   -109.304231
PR21  14715.874864 -20519.753200   3679.377640    -82.151908
PR22   6386.111529 -20847.379356 -13197.200139    111.284125
PR24 -15217.573661   7808.362788 -18904.331257    -46.576509
EOF
